KUIPER-00061            
1 64521U 25134X   25351.10909930  .00002345  00000+0  33362-3 0  9993
2 64521  51.9005 233.2041 0005370  11.4042 348.7041 14.80311924 27900
KUIPER-00062            
1 64522U 25134Y   25350.99000717  .00003057  00000+0  38083-3 0  9991
2 64522  51.8961 238.5924 0007054  27.4567 332.6769 14.85095257 27833
KUIPER-00063            
1 64523U 25134Z   25350.01004109  .00002982  00000+0  41478-3 0  9992
2 64523  51.9017 247.9822 0003242 348.4615  11.6273 14.80482193 27617
KUIPER-00064            
1 64524U 25134AA  25351.10583880 -.00002374  00000+0 -28184-3 0  9998
2 64524  51.9034 240.6846 0008452  80.8703 279.3216 14.79960281 27815
KUIPER-00065            
1 64525U 25134AB  25351.33339120 -.00029683  00000+0 -38550-2 0  9999
2 64525  51.9015 244.9900 0011112  10.5662  69.2594 14.80171911  4764
KUIPER-00066            
1 64526U 25134AC  25351.04064446  .00011700  00000+0  53395-3 0  9998
2 64526  51.8897 214.3888 0000545 113.2483 246.8555 15.21021517 28171
KUIPER-00069            
1 64816U 25151A   25351.12419226  .00002760  00000+0  38954-3 0  9998
2 64816  51.9024 285.7063 0007033  13.8894 346.2261 14.80084975 24539
KUIPER-00070            
1 64817U 25151B   25351.26691056  .00004444  00000+0  61177-3 0  9991
2 64817  51.9004 310.0385 0010610 343.7885  16.2736 14.79904701 24219
