<?xml version="1.0" encoding="UTF-8"?>
<ndm xmlns:xsi="http://www.w3.org/2001/XMLSchema-instance" xsi:noNamespaceSchemaLocation="https://sanaregistry.org/r/ndmxml_unqualified/ndmxml-2.0.0-master-2.0.xsd">
<omm id="CCSDS_OMM_VERS" version="2.0">
<header><CREATION_DATE/><ORIGINATOR/></header><body><segment><metadata><OBJECT_NAME>KUIPER-00061</OBJECT_NAME><OBJECT_ID>2025-134X</OBJECT_ID><CENTER_NAME>EARTH</CENTER_NAME><REF_FRAME>TEME</REF_FRAME><TIME_SYSTEM>UTC</TIME_SYSTEM><MEAN_ELEMENT_THEORY>SGP4</MEAN_ELEMENT_THEORY></metadata><data><meanElements><EPOCH>2025-12-17T02:37:06.179520</EPOCH><MEAN_MOTION>14.80311924</MEAN_MOTION><ECCENTRICITY>.00053706</ECCENTRICITY><INCLINATION>51.9005</INCLINATION><RA_OF_ASC_NODE>233.2041</RA_OF_ASC_NODE><ARG_OF_PERICENTER>11.4042</ARG_OF_PERICENTER><MEAN_ANOMALY>348.7041</MEAN_ANOMALY></meanElements><tleParameters><EPHEMERIS_TYPE>0</EPHEMERIS_TYPE><CLASSIFICATION_TYPE>U</CLASSIFICATION_TYPE><NORAD_CAT_ID>64521</NORAD_CAT_ID><ELEMENT_SET_NO>999</ELEMENT_SET_NO><REV_AT_EPOCH>2790</REV_AT_EPOCH><BSTAR>.3336163E-3</BSTAR><MEAN_MOTION_DOT>.2345E-4</MEAN_MOTION_DOT><MEAN_MOTION_DDOT>0</MEAN_MOTION_DDOT></tleParameters></data></segment></body></omm>
<omm id="CCSDS_OMM_VERS" version="2.0">
<header><CREATION_DATE/><ORIGINATOR/></header><body><segment><metadata><OBJECT_NAME>KUIPER-00062</OBJECT_NAME><OBJECT_ID>2025-134Y</OBJECT_ID><CENTER_NAME>EARTH</CENTER_NAME><REF_FRAME>TEME</REF_FRAME><TIME_SYSTEM>UTC</TIME_SYSTEM><MEAN_ELEMENT_THEORY>SGP4</MEAN_ELEMENT_THEORY></metadata><data><meanElements><EPOCH>2025-12-16T23:45:36.619488</EPOCH><MEAN_MOTION>14.85095257</MEAN_MOTION><ECCENTRICITY>.00070544</ECCENTRICITY><INCLINATION>51.8961</INCLINATION><RA_OF_ASC_NODE>238.5924</RA_OF_ASC_NODE><ARG_OF_PERICENTER>27.4567</ARG_OF_PERICENTER><MEAN_ANOMALY>332.6769</MEAN_ANOMALY></meanElements><tleParameters><EPHEMERIS_TYPE>0</EPHEMERIS_TYPE><CLASSIFICATION_TYPE>U</CLASSIFICATION_TYPE><NORAD_CAT_ID>64522</NORAD_CAT_ID><ELEMENT_SET_NO>999</ELEMENT_SET_NO><REV_AT_EPOCH>2783</REV_AT_EPOCH><BSTAR>.38082506E-3</BSTAR><MEAN_MOTION_DOT>.3057E-4</MEAN_MOTION_DOT><MEAN_MOTION_DDOT>0</MEAN_MOTION_DDOT></tleParameters></data></segment></body></omm>
<omm id="CCSDS_OMM_VERS" version="2.0">
<header><CREATION_DATE/><ORIGINATOR/></header><body><segment><metadata><OBJECT_NAME>KUIPER-00063</OBJECT_NAME><OBJECT_ID>2025-134Z</OBJECT_ID><CENTER_NAME>EARTH</CENTER_NAME><REF_FRAME>TEME</REF_FRAME><TIME_SYSTEM>UTC</TIME_SYSTEM><MEAN_ELEMENT_THEORY>SGP4</MEAN_ELEMENT_THEORY></metadata><data><meanElements><EPOCH>2025-12-16T00:14:27.550176</EPOCH><MEAN_MOTION>14.80482193</MEAN_MOTION><ECCENTRICITY>.00032421</ECCENTRICITY><INCLINATION>51.9017</INCLINATION><RA_OF_ASC_NODE>247.9822</RA_OF_ASC_NODE><ARG_OF_PERICENTER>348.4615</ARG_OF_PERICENTER><MEAN_ANOMALY>11.6273</MEAN_ANOMALY></meanElements><tleParameters><EPHEMERIS_TYPE>0</EPHEMERIS_TYPE><CLASSIFICATION_TYPE>U</CLASSIFICATION_TYPE><NORAD_CAT_ID>64523</NORAD_CAT_ID><ELEMENT_SET_NO>999</ELEMENT_SET_NO><REV_AT_EPOCH>2761</REV_AT_EPOCH><BSTAR>.41478292E-3</BSTAR><MEAN_MOTION_DOT>.2982E-4</MEAN_MOTION_DOT><MEAN_MOTION_DDOT>0</MEAN_MOTION_DDOT></tleParameters></data></segment></body></omm>
<omm id="CCSDS_OMM_VERS" version="2.0">
<header><CREATION_DATE/><ORIGINATOR/></header><body><segment><metadata><OBJECT_NAME>KUIPER-00064</OBJECT_NAME><OBJECT_ID>2025-134AA</OBJECT_ID><CENTER_NAME>EARTH</CENTER_NAME><REF_FRAME>TEME</REF_FRAME><TIME_SYSTEM>UTC</TIME_SYSTEM><MEAN_ELEMENT_THEORY>SGP4</MEAN_ELEMENT_THEORY></metadata><data><meanElements><EPOCH>2025-12-17T02:32:24.472320</EPOCH><MEAN_MOTION>14.79960281</MEAN_MOTION><ECCENTRICITY>.00084526</ECCENTRICITY><INCLINATION>51.9034</INCLINATION><RA_OF_ASC_NODE>240.6846</RA_OF_ASC_NODE><ARG_OF_PERICENTER>80.8703</ARG_OF_PERICENTER><MEAN_ANOMALY>279.3216</MEAN_ANOMALY></meanElements><tleParameters><EPHEMERIS_TYPE>0</EPHEMERIS_TYPE><CLASSIFICATION_TYPE>U</CLASSIFICATION_TYPE><NORAD_CAT_ID>64524</NORAD_CAT_ID><ELEMENT_SET_NO>999</ELEMENT_SET_NO><REV_AT_EPOCH>2781</REV_AT_EPOCH><BSTAR>-.28184076E-3</BSTAR><MEAN_MOTION_DOT>-.2374E-4</MEAN_MOTION_DOT><MEAN_MOTION_DDOT>0</MEAN_MOTION_DDOT></tleParameters></data></segment></body></omm>
<omm id="CCSDS_OMM_VERS" version="2.0">
<header><CREATION_DATE/><ORIGINATOR/></header><body><segment><metadata><OBJECT_NAME>KUIPER-00065</OBJECT_NAME><OBJECT_ID>2025-134AB</OBJECT_ID><CENTER_NAME>EARTH</CENTER_NAME><REF_FRAME>TEME</REF_FRAME><TIME_SYSTEM>UTC</TIME_SYSTEM><MEAN_ELEMENT_THEORY>SGP4</MEAN_ELEMENT_THEORY></metadata><data><meanElements><EPOCH>2025-12-17T08:00:04.999680</EPOCH><MEAN_MOTION>14.80171911</MEAN_MOTION><ECCENTRICITY>.00111129</ECCENTRICITY><INCLINATION>51.9015</INCLINATION><RA_OF_ASC_NODE>244.9900</RA_OF_ASC_NODE><ARG_OF_PERICENTER>10.5662</ARG_OF_PERICENTER><MEAN_ANOMALY>69.2594</MEAN_ANOMALY></meanElements><tleParameters><EPHEMERIS_TYPE>0</EPHEMERIS_TYPE><CLASSIFICATION_TYPE>U</CLASSIFICATION_TYPE><NORAD_CAT_ID>64525</NORAD_CAT_ID><ELEMENT_SET_NO>999</ELEMENT_SET_NO><REV_AT_EPOCH>476</REV_AT_EPOCH><BSTAR>-.38549728E-2</BSTAR><MEAN_MOTION_DOT>-.29683E-3</MEAN_MOTION_DOT><MEAN_MOTION_DDOT>0</MEAN_MOTION_DDOT></tleParameters></data></segment></body></omm>
<omm id="CCSDS_OMM_VERS" version="2.0">
<header><CREATION_DATE/><ORIGINATOR/></header><body><segment><metadata><OBJECT_NAME>KUIPER-00066</OBJECT_NAME><OBJECT_ID>2025-134AC</OBJECT_ID><CENTER_NAME>EARTH</CENTER_NAME><REF_FRAME>TEME</REF_FRAME><TIME_SYSTEM>UTC</TIME_SYSTEM><MEAN_ELEMENT_THEORY>SGP4</MEAN_ELEMENT_THEORY></metadata><data><meanElements><EPOCH>2025-12-17T00:58:31.681344</EPOCH><MEAN_MOTION>15.21021517</MEAN_MOTION><ECCENTRICITY>.0000545</ECCENTRICITY><INCLINATION>51.8897</INCLINATION><RA_OF_ASC_NODE>214.3888</RA_OF_ASC_NODE><ARG_OF_PERICENTER>113.2483</ARG_OF_PERICENTER><MEAN_ANOMALY>246.8555</MEAN_ANOMALY></meanElements><tleParameters><EPHEMERIS_TYPE>0</EPHEMERIS_TYPE><CLASSIFICATION_TYPE>U</CLASSIFICATION_TYPE><NORAD_CAT_ID>64526</NORAD_CAT_ID><ELEMENT_SET_NO>999</ELEMENT_SET_NO><REV_AT_EPOCH>2817</REV_AT_EPOCH><BSTAR>.53395418E-3</BSTAR><MEAN_MOTION_DOT>.117E-3</MEAN_MOTION_DOT><MEAN_MOTION_DDOT>0</MEAN_MOTION_DDOT></tleParameters></data></segment></body></omm>
<omm id="CCSDS_OMM_VERS" version="2.0">
<header><CREATION_DATE/><ORIGINATOR/></header><body><segment><metadata><OBJECT_NAME>KUIPER-00069</OBJECT_NAME><OBJECT_ID>2025-151A</OBJECT_ID><CENTER_NAME>EARTH</CENTER_NAME><REF_FRAME>TEME</REF_FRAME><TIME_SYSTEM>UTC</TIME_SYSTEM><MEAN_ELEMENT_THEORY>SGP4</MEAN_ELEMENT_THEORY></metadata><data><meanElements><EPOCH>2025-12-17T02:58:50.211264</EPOCH><MEAN_MOTION>14.80084975</MEAN_MOTION><ECCENTRICITY>.00070335</ECCENTRICITY><INCLINATION>51.9024</INCLINATION><RA_OF_ASC_NODE>285.7063</RA_OF_ASC_NODE><ARG_OF_PERICENTER>13.8894</ARG_OF_PERICENTER><MEAN_ANOMALY>346.2261</MEAN_ANOMALY></meanElements><tleParameters><EPHEMERIS_TYPE>0</EPHEMERIS_TYPE><CLASSIFICATION_TYPE>U</CLASSIFICATION_TYPE><NORAD_CAT_ID>64816</NORAD_CAT_ID><ELEMENT_SET_NO>999</ELEMENT_SET_NO><REV_AT_EPOCH>2453</REV_AT_EPOCH><BSTAR>.38954347E-3</BSTAR><MEAN_MOTION_DOT>.276E-4</MEAN_MOTION_DOT><MEAN_MOTION_DDOT>0</MEAN_MOTION_DDOT></tleParameters></data></segment></body></omm>
<omm id="CCSDS_OMM_VERS" version="2.0">
<header><CREATION_DATE/><ORIGINATOR/></header><body><segment><metadata><OBJECT_NAME>KUIPER-00070</OBJECT_NAME><OBJECT_ID>2025-151B</OBJECT_ID><CENTER_NAME>EARTH</CENTER_NAME><REF_FRAME>TEME</REF_FRAME><TIME_SYSTEM>UTC</TIME_SYSTEM><MEAN_ELEMENT_THEORY>SGP4</MEAN_ELEMENT_THEORY></metadata><data><meanElements><EPOCH>2025-12-17T06:24:21.072384</EPOCH><MEAN_MOTION>14.79904701</MEAN_MOTION><ECCENTRICITY>.00106104</ECCENTRICITY><INCLINATION>51.9004</INCLINATION><RA_OF_ASC_NODE>310.0385</RA_OF_ASC_NODE><ARG_OF_PERICENTER>343.7885</ARG_OF_PERICENTER><MEAN_ANOMALY>16.2736</MEAN_ANOMALY></meanElements><tleParameters><EPHEMERIS_TYPE>0</EPHEMERIS_TYPE><CLASSIFICATION_TYPE>U</CLASSIFICATION_TYPE><NORAD_CAT_ID>64817</NORAD_CAT_ID><ELEMENT_SET_NO>999</ELEMENT_SET_NO><REV_AT_EPOCH>2421</REV_AT_EPOCH><BSTAR>.61176967E-3</BSTAR><MEAN_MOTION_DOT>.4444E-4</MEAN_MOTION_DOT><MEAN_MOTION_DDOT>0</MEAN_MOTION_DDOT></tleParameters></data></segment></body></omm>

</ndm>
